satname,norad_id,inclination_deg,eccentricity,mean_motion_rev_per_day,perigee_km,apogee_km,l1,l2
STARLINK-1008,44714,53.1496,0.0005105,15.54017911,401.5461482333367,408.47174024240394,1 44714U 19074B   26201.40664019  .00040799  00000+0  62345-3 0  9993,2 44714  53.1496 269.1769 0005105 339.4652  20.6153 15.54017911369372
STARLINK-1012,44718,53.1534,0.000585,15.54487225,399.67627107965654,407.61095439655946,1 44718U 19074F   26201.84517161  .00048282  00000+0  72321-3 0  9990,2 44718  53.1534 267.2626 0005850 346.2265  13.8586 15.54487225369433
STARLINK-1017,44723,53.0451,0.0001195,15.34497139,461.5970919500105,463.23198376755863,1 44723U 19074L   26201.90132400  .00018924  00000+0  56802-3 0  9998,2 44723  53.0451 271.6641 0001195  76.1469 283.9665 15.34497139369357
STARLINK-1020,44725,53.154,0.0004872,15.60499994,382.91621089307046,389.5073923653781,1 44725U 19074N   26201.52019170  .00052055  00000+0  62233-3 0  9994,2 44725  53.1540 291.1523 0004872 314.3891  45.6724 15.60499994369052
STARLINK-1036,44741,53.0397,0.0003814,15.78000432,333.54582263979955,338.6674476847011,1 44741U 19074AE  26201.45455448  .00050461  00000+0  29333-3 0  9999,2 44741  53.0397 254.8397 0003814  21.4075 338.7103 15.78000432369544
STARLINK-1039,44744,53.0573,0.0001217,15.31466018,470.6039789688939,472.27116541976557,1 44744U 19074AH  26201.36179113  .00023882  00000+0  78450-3 0  9995,2 44744  53.0573 320.5348 0001217 229.3999 130.6895 15.31466018368629
STARLINK-1042,44747,53.0415,0.0001371,15.55999349,398.32002041172655,400.17837970778237,1 44747U 19074AL  26201.15420158  .00015418  00000+0  22417-3 0  9991,2 44747  53.0415 176.1202 0001371  57.1342 302.9801 15.55999349370652
STARLINK-1043,44748,53.048,0.0002934,15.67623992,363.72408270669985,367.6813678574954,1 44748U 19074AM  26201.42259685  .00030544  00000+0  27875-3 0  9997,2 44748  53.0480 268.1865 0002934  19.2041 340.9084 15.67623992369365
STARLINK-1046,44751,53.0447,0.0003873,15.60857693,382.5588808891807,387.79774493056084,1 44751U 19074AQ  26201.52088693  .00042588  00000+0  50397-3 0  9997,2 44751  53.0447 291.4851 0003873 278.6757  81.3817 15.60857693369049
STARLINK-1047,44752,53.0672,0.0001555,15.35706196,457.7605550346316,459.88684981308415,1 44752U 19074AR  26202.00002315  .00067438  00000+0  19081-2 0  9994,2 44752  53.0672 241.8570 0001555 291.2304 119.9073 15.35706196  5841
STARLINK-1048,44753,53.0417,7.84e-05,15.7163396,353.69891336761975,354.75454800059197,1 44753U 19074AS  26201.38207242  .00036129  00000+0  27853-3 0  9991,2 44753  53.0417 238.6615 0000784 125.9468 234.1622 15.71633960369762
STARLINK-1063,44768,53.1531,0.0004133,15.54254494,401.51739975051805,407.1237791939757,1 44768U 19074BH  26201.86877194  .00046062  00000+0  69657-3 0  9994,2 44768  53.1531 307.9845 0004133 324.3563  35.7171 15.54254494368882
STARLINK-1067,44771,53.0389,0.0007606,15.85301087,310.38592023216734,320.56824597538434,1 44771U 19074BL  26201.89053488  .00107755  00000+0  43979-3 0  9999,2 44771  53.0389 264.3381 0007606   1.0437 359.0601 15.85301087369453
STARLINK-1068,44772,53.0372,0.0006556,15.82393335,319.2808374045444,328.06825270241734,1 44772U 19074BM  26201.82831323  .00079554  00000+0  37498-3 0  9999,2 44772  53.0372 238.9909 0006556   9.9220 350.1930 15.82393335369797
STARLINK-1114,44927,53.04,0.0001416,15.74105596,346.22521239051184,348.12982146170543,1 44927U 20001P   26201.94824576  .00050527  00000+0  34842-3 0  9997,2 44927  53.0400  38.1115 0001416 258.1261 101.9599 15.74105596360923
STARLINK-1123,44930,53.1393,0.0005595,15.64542353,370.7771350280127,378.3333976740596,1 44930U 20001S   26201.91621179  .00047866  00000+0  48966-3 0  9996,2 44930  53.1393  68.5968 0005595 102.3288 257.8354 15.64542353360513
STARLINK-1094,44941,53.1496,0.0005086,15.59800045,384.79390846613205,391.67666235485194,1 44941U 20001AD  26201.93288343  .00058881  00000+0  72151-3 0  9994,2 44941  53.1496  44.9573 0005086 124.7155 235.4339 15.59800045360856
STARLINK-1122,44949,53.153,0.0005032,15.5931162,386.24262128837563,393.0537202842561,1 44949U 20001AM  26201.94324818  .00055046  00000+0  68788-3 0  9992,2 44949  53.1530  45.5170 0005032 113.8543 246.2998 15.59311620360840
STARLINK-1080,44961,53.0454,0.0001014,15.71997294,352.50677169591563,353.87188467527085,1 44961U 20001AZ  26201.71795098  .00045650  00000+0  34500-3 0  9998,2 44961  53.0454 359.8369 0001014 238.2797 121.8121 15.71997294361442
STARLINK-1090,44968,53.1469,0.0004003,15.55313977,398.5263058758346,403.95387517450854,1 44968U 20001BG  26201.91038462  .00027028  00000+0  39706-3 0  9994,2 44968  53.1469  34.6000 0004003 119.9466 240.1943 15.55313977360993
STARLINK-1132,45044,53.1486,0.0001571,15.65384278,371.07334005777375,373.1942751455226,1 45044U 20006A   26202.00002315  .01152355  00000+0  10240-1 0  9997,2 45044  53.1486 333.4626 0001571  80.7246 351.5348 15.65384278  5951
STARLINK-1131,45047,53.1546,5.75e-05,15.59691975,388.1587556563618,388.9369244129657,1 45047U 20006D   26201.76707484  .00023415  00000+0  29329-3 0  9994,2 45047  53.1546   8.4283 0000575  54.9946 305.1121 15.59691975357123
STARLINK-1134,45048,53.0223,0.0005138,15.63600349,373.7962110977587,380.73806438970496,1 45048U 20006E   26201.58127288  .00027917  00000+0  29949-3 0  9992,2 45048  53.0223 316.6577 0005138 244.4040 115.6442 15.63600349357801
STARLINK-1156,45054,53.1572,0.0002813,15.38515983,448.57605837445954,452.41784783647654,1 45054U 20006L   26201.91572045  .00033365  00000+0  87122-3 0  9992,2 45054  53.1572  19.1173 0002813 133.7854 226.3384 15.38515983356987
STARLINK-1166,45060,53.0431,0.0001338,15.69494392,359.44219988395344,361.2454173483384,1 45060U 20006S   26201.94714876  .00044757  00000+0  37558-3 0  9997,2 45060  53.0431 346.9898 0001338 343.3529  16.7443 15.69494392357411
STARLINK-1169,45061,53.1545,0.0003869,15.42204946,436.96540271670347,442.24097007293585,1 45061U 20006T   26201.91671177  .00039960  00000+0  92140-3 0  9999,2 45061  53.1545  16.6087 0003869 107.3613 252.7816 15.42204946357021
STARLINK-1171,45062,53.0366,0.0002754,15.80927463,325.9698004956672,329.66343974963183,1 45062U 20006U   26200.72254695  .00063646  00000+0  32273-3 0  9999,2 45062  53.0366 314.9185 0002754 355.7931   4.3066 15.80927463357755
STARLINK-1133,45064,53.1572,0.000281,15.38376573,448.9905321996084,452.8284563293855,1 45064U 20006W   26201.69424201  .00028838  00000+0  75826-3 0  9995,2 45064  53.1572 356.9614 0002810 135.5470 224.5760 15.38376573357283
STARLINK-1167,45071,53.1578,0.0002237,15.41107354,441.3140580211848,444.36576309096836,1 45071U 20006AD  26200.84590183  .00033677  00000+0  80763-3 0  9995,2 45071  53.1578 359.2336 0002237  61.2807 298.8423 15.41107354357177
STARLINK-1168,45072,53.1587,0.0002072,15.38935986,447.83982397394993,450.6690949947597,1 45072U 20006AE  26201.72833088  .00030147  00000+0  77785-3 0  9997,2 45072  53.1587 356.8845 0002072 104.8165 255.3069 15.38935986357286
STARLINK-1172,45074,53.1538,0.0001486,15.42198873,438.6079658442304,440.63420354700156,1 45074U 20006AG  26201.74771984  .00030925  00000+0  71630-3 0  9994,2 45074  53.1538 353.9868 0001486  85.5955 274.5221 15.42198873357326
STARLINK-1153,45080,53.156,0.0003676,15.41196589,440.06932481366675,445.0839134664575,1 45080U 20006AN  26201.73556623  .00027315  00000+0  65544-3 0  9997,2 45080  53.1560 354.9362 0003676  69.3924 290.7476 15.41196589357319
STARLINK-1151,45081,53.0409,0.0012859,16.07212279,245.97288493795713,263.03070539136115,1 45081U 20006AP  26201.91503914  .00443057  10533-3  54418-3 0  9992,2 45081  53.0409 291.9800 0012859 345.1806  14.8848 16.07212279358176
STARLINK-1185,45087,53.1574,8.88e-05,15.50688384,414.1117910247858,415.31820153932676,1 45087U 20006AV  26201.69251303  .00040595  00000+0  69934-3 0  9998,2 45087  53.1574 332.5108 0000888 178.3182 181.7830 15.50688384357626
STARLINK-1183,45088,53.1575,0.0001719,15.38229151,450.1718241742392,452.5198003650976,1 45088U 20006AW  26200.81167400  .00029006  00000+0  76632-3 0  9993,2 45088  53.1575 345.9569 0001719 166.4842 193.6208 15.38229151357352
STARLINK-1152,45096,53.0301,0.0004296,15.53991192,402.17262311171544,408.0007689113281,1 45096U 20006BE  26201.55171601  .00041065  00000+0  62808-3 0  9991,2 45096  53.0301 292.2931 0004296 310.0288  50.0344 15.53991192358141
STARLINK-1184,45098,53.0536,0.0003646,15.16064186,515.2354321045705,520.2639126660742,1 45098U 20006BG  26201.87805987  .00016338  00000+0  85291-3 0  9995,2 45098  53.0536   1.0881 0003646 164.0012 196.1097 15.16064186357209
STARLINK-1193,45100,53.045,0.0003903,15.72332759,349.60498991335953,354.858715839915,1 45100U 20006BJ  26201.54540564  .00042508  00000+0  31708-3 0  9992,2 45100  53.0450 298.4136 0003903  60.9389 299.2019 15.72332759358059
STARLINK-1143,45179,53.0263,0.0009912,16.19636086,213.99951070932184,227.08072823095972,1 45179U 20012B   26200.81724209  .00951789  11805-4  48953-3 0  9994,2 45179  53.0263  23.5214 0009912 290.5681  69.4292 16.19636086356851
STARLINK-1202,45183,53.1535,0.0004436,15.37957713,449.1194419315225,455.17927198741745,1 45183U 20012F   26201.54224257  .00027822  00000+0  74191-3 0  9993,2 45183  53.1535 139.3288 0004436  43.9160 316.2196 15.37957713355334
STARLINK-1216,45185,53.1545,0.0001439,15.41457095,440.8267410558801,442.7895212646281,1 45185U 20012H   26202.00002315  .00076954  00000+0  18018-2 0  9991,2 45185  53.1545 136.8733 0001439  89.5401 124.6887 15.41457095  5847
STARLINK-1225,45187,53.1549,0.0004923,15.38421273,447.4153370648064,454.1390859974799,1 45187U 20012K   26201.11905308  .00027801  00000+0  73027-3 0  9997,2 45187  53.1549 141.5235 0004923  51.6471 308.4975 15.38421273355259
STARLINK-1230,45189,53.1529,0.0004634,15.38368584,447.76854604705113,454.0977282501599,1 45189U 20012M   26201.91361031  .00034407  00000+0  90214-3 0  9993,2 45189  53.1529 137.8931 0004634  53.7437 306.3995 15.38368584352604
